IRIDIUM 63              
1 25286U 98021B   25124.22637925  .00000710  00000+0  23527-3 0  9992
2 25286  86.3942 100.5762 0002462  86.4639 273.6840 14.36509337417809
IRIDIUM 69              
1 25319U 98026A   25124.23480069  .00000830  00000+0  25276-3 0  9996
2 25319  86.3936 113.9989 0003565 128.9635 231.1882 14.40924689416979
IRIDIUM 71              
1 25320U 98026B   25123.90033992  .00000751  00000+0  22714-3 0  9996
2 25320  86.3933 108.8373 0001393 153.5767 206.5504 14.41118659417213
IRIDIUM 73              
1 25344U 98032C   25123.87808786  .00001135  00000+0  27801-3 0  9995
2 25344  86.4412  65.6306 0002797  98.1432 262.0091 14.51661007424138
IRIDIUM 82              
1 25467U 98051A   25123.91398227  .00030433  00000+0  91694-3 0  9995
2 25467  86.3658 131.4714 0092717 104.3786 256.7776 15.29942904417184
